NORAD_CAT_ID,OBJECT_NAME,OBJECT_TYPE,EPOCH,MEAN_MOTION,ECCENTRICITY,INCLINATION,RA_OF_ASC_NODE,ARG_OF_PERICENTER,MEAN_ANOMALY,BSTAR,MEAN_MOTION_DOT,MEAN_MOTION_DDOT,TLE_LINE0,TLE_LINE1,TLE_LINE2,SEMIMAJOR_AXIS,PERIOD,APOGEE,PERIGEE,DECAYED
55953.0,STARLINK-5889,PAYLOAD,2023-08-28 15:57:54,15.69923286,0.0003702,69.997,80.2604,270.1164,89.9608,-5.9853e-06,-9.33e-06,0.0,0 STARLINK-5889,1 55953U 23037AR  23240.66521788 -.00000933  00000-0 -59853-5 0  9998,2 55953  69.9970  80.2604 0003702 270.1164  89.9608 15.69923286 25910,6737.253,91.724,361.613,356.624,0.0
55953.0,STARLINK-5889,PAYLOAD,2023-08-29 01:08:24,15.69943113,0.0003721,69.9972,79.185,270.3546,89.7223,-9.4944e-06,-1.356e-05,0.0,0 STARLINK-5889,1 55953U 23037AR  23241.04750463 -.00001356  00000-0 -94944-5 0  9995,2 55953  69.9972  79.1850 0003721 270.3546  89.7223 15.69943113 26316,6737.197,91.723,361.569,356.555,0.0
55953.0,STARLINK-5889,PAYLOAD,2023-08-29 14:54:11,15.6991166,0.0003585,69.9972,77.5731,271.0411,89.0374,1.1104e-05,1.122e-05,0.0,0 STARLINK-5889,1 55953U 23037AR  23241.62097184  .00001122  00000-0  11104-4 0  9998,2 55953  69.9972  77.5731 0003585 271.0411  89.0374 15.69911660 26405,6737.287,91.725,361.567,356.736,0.0
55953.0,STARLINK-5889,PAYLOAD,2023-08-29 22:33:01,15.69869599,0.0003975,69.9972,76.6772,281.975,78.1,-3.2742e-05,-4.14e-05,0.0,0 STARLINK-5889,1 55953U 23037AR  23241.93959751 -.00004140  00000-0 -32742-4 0  9995,2 55953  69.9972  76.6772 0003975 281.9750  78.1000 15.69869599 26452,6737.407,91.727,361.95,356.594,0.0
55953.0,STARLINK-5889,PAYLOAD,2023-08-30 04:40:31,15.69484944,0.0004534,69.9977,75.9609,249.4989,110.572,-0.00046579,-0.00054871,0.0,0 STARLINK-5889,1 55953U 23037AR  23242.19480903 -.00054871  00000-0 -46579-3 0  9990,2 55953  69.9977  75.9609 0004534 249.4989 110.5720 15.69484944 26494,6738.508,91.75,363.428,357.318,0.0
55953.0,STARLINK-5889,PAYLOAD,2023-08-30 15:23:37,15.68946046,0.0003406,69.9971,74.7093,265.2871,94.7935,-0.0010232,-0.00116752,0.0,0 STARLINK-5889,1 55953U 23037AR  23242.64140967 -.00116752  00000-0 -10232-2 0  9996,2 55953  69.9971  74.7093 0003406 265.2871  94.7935 15.68946046 26569,6740.051,91.781,364.211,359.62,0.0
55953.0,STARLINK-5889,PAYLOAD,2023-08-31 06:00:00,15.67034988,0.000346,69.9987,73.0005,269.7299,286.7765,-0.0095065,-0.00925121,0.0,0 STARLINK-5889,1 55953U 23037AR  23243.25001157 -.00925121  00000-0 -95065-2 0  9996,2 55953  69.9987  73.0005 0003460 269.7299 286.7765 15.67034988 26650,6745.529,91.893,369.728,365.061,0.0
55953.0,STARLINK-5889,PAYLOAD,2023-08-31 22:00:01,15.65716842,0.0003594,69.9991,71.1356,272.8955,81.8497,-0.0095958,-0.00888739,0.0,0 STARLINK-5889,1 55953U 23037AR  23243.91668981 -.00888739  00000-0 -95958-2 0  9997,2 55953  69.9991  71.1356 0003594 272.8955  81.8497 15.65716842  5854,6749.315,91.971,373.606,368.754,0.0
55953.0,STARLINK-5889,PAYLOAD,2023-09-01 14:00:01,15.64443413,0.0003391,69.9992,69.2745,268.4224,241.2819,-0.010607,-0.00929576,0.0,0 STARLINK-5889,1 55953U 23037AR  23244.58334491 -.00929576  00000-0 -10607-1 0  9999,2 55953  69.9992  69.2745 0003391 268.4224 241.2819 15.64443413  5962,6752.977,92.046,377.132,372.552,0.0
55953.0,STARLINK-5889,PAYLOAD,2023-09-01 22:00:00,15.63757323,0.0003452,69.999,68.3453,273.7134,312.3541,-0.010305,-0.00883158,0.0,0 STARLINK-5889,1 55953U 23037AR  23244.91667824 -.00883158  00000-0 -10305-1 0  9995,2 55953  69.9990  68.3453 0003452 273.7134 312.3541 15.63757323  6019,6754.952,92.086,379.149,374.485,0.0
55953.0,STARLINK-5889,PAYLOAD,2023-09-02 14:00:01,15.62489583,0.000363,69.9996,66.4897,269.5788,106.8165,-0.01148,-0.00931351,0.0,0 STARLINK-5889,1 55953U 23037AR  23245.58334491 -.00931351  00000-0 -11480-1 0  9994,2 55953  69.9996  66.4897 0003630 269.5788 106.8165 15.62489583  5973,6758.605,92.161,382.924,378.017,0.0
55953.0,STARLINK-5889,PAYLOAD,2023-09-02 22:00:00,15.61796417,0.0003604,69.9996,65.5631,276.6981,173.717,-0.011036,-0.00876463,0.0,0 STARLINK-5889,1 55953U 23037AR  23245.91667824 -.00876463  00000-0 -11036-1 0  9999,2 55953  69.9996  65.5631 0003604 276.6981 173.7170 15.61796417 27074,6760.605,92.202,384.906,380.033,0.0
55953.0,STARLINK-5889,PAYLOAD,2023-09-03 14:00:01,15.60537415,0.0003454,69.9997,63.7131,267.7794,328.267,-0.012495,-0.00938867,0.0,0 STARLINK-5889,1 55953U 23037AR  23246.58334491 -.00938867  00000-0 -12495-1 0  9991,2 55953  69.9997  63.7131 0003454 267.7794 328.2670 15.60537415 27179,6764.241,92.276,388.442,383.769,0.0
55953.0,STARLINK-5889,PAYLOAD,2023-09-04 14:00:01,15.58582522,0.0003576,70.0003,60.9449,272.3546,176.3055,-0.013569,-0.00945523,0.0,0 STARLINK-5889,1 55953U 23037AR  23247.58334491 -.00945523  00000-0 -13569-1 0  9992,2 55953  70.0003  60.9449 0003576 272.3546 176.3055 15.58582522  5950,6769.896,92.392,394.182,389.34,0.0
55953.0,STARLINK-5889,PAYLOAD,2023-09-04 22:00:00,15.5787838,0.0003516,70.0001,60.0239,277.3135,240.6736,-0.012685,-0.00867827,0.0,0 STARLINK-5889,1 55953U 23037AR  23247.91667824 -.00867827  00000-0 -12685-1 0  9996,2 55953  70.0001  60.0239 0003516 277.3135 240.6736 15.57878380 27380,6771.935,92.433,396.181,391.419,0.0
55953.0,STARLINK-5889,PAYLOAD,2023-09-05 14:00:01,15.56623654,0.0003626,70.0003,58.1846,269.9034,24.3289,-0.014563,-0.00942931,0.0,0 STARLINK-5889,1 55953U 23037AR  23248.58334491 -.00942931  00000-0 -14563-1 0  9998,2 55953  70.0003  58.1846 0003626 269.9034  24.3289 15.56623654 27494,6775.574,92.508,399.896,394.982,0.0
55953.0,STARLINK-5889,PAYLOAD,2023-09-06 14:00:01,15.54666141,0.0003481,70.0002,55.4327,274.4704,218.2941,-0.015686,-0.00944344,0.0,0 STARLINK-5889,1 55953U 23037AR  23249.58334491 -.00944344  00000-0 -15686-1 0  9996,2 55953  70.0002  55.4327 0003481 274.4704 218.2941 15.54666141 27643,6781.26,92.624,405.486,400.765,0.0
55953.0,STARLINK-5889,PAYLOAD,2023-09-06 22:00:00,15.53973835,0.0003485,69.9998,54.517,278.5927,278.7992,-0.014885,-0.00879761,0.0,0 STARLINK-5889,1 55953U 23037AR  23249.91667824 -.00879761  00000-0 -14885-1 0  9992,2 55953  69.9998  54.5170 0003485 278.5927 278.7992 15.53973835  5650,6783.274,92.666,407.503,402.775,0.0
55953.0,STARLINK-5889,PAYLOAD,2023-09-07 14:00:01,15.52708191,0.0003583,70.0003,52.6885,273.2097,51.0469,-0.016783,-0.00954321,0.0,0 STARLINK-5889,1 55953U 23037AR  23250.58334491 -.00954321  00000-0 -16783-1 0  9993,2 55953  70.0003  52.6885 0003583 273.2097  51.0469 15.52708191 27803,6786.96,92.741,411.257,406.393,0.0
55953.0,STARLINK-5889,PAYLOAD,2023-09-07 22:00:00,15.51992553,0.0003612,69.9999,51.7755,279.2182,107.3246,-0.014925,-0.00825733,0.0,0 STARLINK-5889,1 55953U 23037AR  23250.91667824 -.00825733  00000-0 -14925-1 0  9999,2 55953  69.9999  51.7755 0003612 279.2182 107.3246 15.51992553  5815,6789.046,92.784,413.363,408.459,0.0
55953.0,STARLINK-5889,PAYLOAD,2023-09-08 06:00:02,15.51215352,0.0003483,69.9998,50.8634,273.3673,174.7395,0.00013684,7.879e-05,0.0,0 STARLINK-5889,1 55953U 23037AR  23251.25002315  .00007879  00000-0  13684-3 0  9999,2 55953  69.9998  50.8634 0003483 273.3673 174.7395 15.51215352 27908,6791.313,92.83,415.544,410.813,0.0
55953.0,STARLINK-5889,PAYLOAD,2023-09-08 14:00:01,15.51249212,0.0003475,70.0,49.9519,274.4267,234.5161,-0.00066029,-0.00038796,0.0,0 STARLINK-5889,1 55953U 23037AR  23251.58334491 -.00038796  00000-0 -66029-3 0  9993,2 55953  70.0000  49.9519 0003475 274.4267 234.5161 15.51249212  5924,6791.215,92.828,415.44,410.72,0.0
55953.0,STARLINK-5889,PAYLOAD,2023-09-08 22:00:00,15.51313431,0.0003464,69.9996,49.0405,279.3399,290.461,-0.0055202,-0.00312959,0.0,0 STARLINK-5889,1 55953U 23037AR  23251.91667824 -.00312959  00000-0 -55202-2 0  9995,2 55953  69.9996  49.0405 0003464 279.3399 290.4610 15.51313431 28007,6791.027,92.825,415.245,410.54,0.0
55953.0,STARLINK-5889,PAYLOAD,2023-09-09 06:00:00,15.51281731,0.0003076,69.9999,48.1296,275.43,355.2514,-0.024948,-0.01325973,0.0,0 STARLINK-5889,1 55953U 23037AR  23252.25001157 -.01325973  00000-0 -24948-1 0  9997,2 55953  69.9999  48.1296 0003076 275.4300 355.2514 15.51281731 28062,6791.12,92.826,415.074,410.896,0.0
55953.0,STARLINK-5889,PAYLOAD,2023-09-09 14:00:01,15.50362357,0.0003172,70.0,47.2188,273.1866,57.8663,-0.016894,-0.00876676,0.0,0 STARLINK-5889,1 55953U 23037AR  23252.58334491 -.00876676  00000-0 -16894-1 0  9994,2 55953  70.0000  47.2188 0003172 273.1866  57.8663 15.50362357 28116,6793.804,92.882,417.824,413.514,0.0
55953.0,STARLINK-5889,PAYLOAD,2023-09-10 06:00:00,15.49049077,0.0003374,69.9996,45.3999,271.6287,177.6649,-0.017288,-0.00858124,0.0,0 STARLINK-5889,1 55953U 23037AR  23253.25001157 -.00858124  00000-0 -17288-1 0  9995,2 55953  69.9996  45.3999 0003374 271.6287 177.6649 15.49049077 28215,6797.644,92.96,421.802,417.215,0.0
55953.0,STARLINK-5889,PAYLOAD,2023-09-10 14:00:01,15.48455577,0.0003417,70.0,44.4916,272.3631,234.8577,-0.01959,-0.00956955,0.0,0 STARLINK-5889,1 55953U 23037AR  23253.58334491 -.00956955  00000-0 -19590-1 0  9990,2 55953  70.0000  44.4916 0003417 272.3631 234.8577 15.48455577  6028,6799.38,92.996,423.569,418.922,0.0
55953.0,STARLINK-5889,PAYLOAD,2023-09-10 22:00:00,15.47773247,0.0003386,69.9996,43.5845,275.0712,289.3265,-0.018971,-0.0090886,0.0,0 STARLINK-5889,1 55953U 23037AR  23253.91667824 -.00908860  00000-0 -18971-1 0  9990,2 55953  69.9996  43.5845 0003386 275.0712 289.3265 15.47773247 28316,6801.379,93.037,425.547,420.941,0.0
55953.0,STARLINK-5889,PAYLOAD,2023-09-11 14:00:01,15.46497969,0.0003518,69.9999,41.7728,271.1813,45.1896,-0.020967,-0.00956724,0.0,0 STARLINK-5889,1 55953U 23037AR  23254.58334491 -.00956724  00000-0 -20967-1 0  9995,2 55953  69.9999  41.7728 0003518 271.1813  45.1896 15.46497969 28428,6805.117,93.114,429.376,424.588,0.0
55953.0,STARLINK-5889,PAYLOAD,2023-09-12 06:00:00,15.4512594,0.0003402,69.9999,39.9649,272.5929,152.6547,-0.019352,-0.00839786,0.0,0 STARLINK-5889,1 55953U 23037AR  23255.25001157 -.00839786  00000-0 -19352-1 0  9994,2 55953  69.9999  39.9649 0003402 272.5929 152.6547 15.45125940 28528,6809.145,93.196,433.327,428.694,0.0
